NORAD_CAT_ID,OBJECT_NAME,OBJECT_TYPE,EPOCH,MEAN_MOTION,ECCENTRICITY,INCLINATION,RA_OF_ASC_NODE,ARG_OF_PERICENTER,MEAN_ANOMALY,BSTAR,MEAN_MOTION_DOT,MEAN_MOTION_DDOT,TLE_LINE0,TLE_LINE1,TLE_LINE2,SEMIMAJOR_AXIS,PERIOD,APOGEE,PERIGEE,DECAYED
55766.0,STARLINK-5599,PAYLOAD,2024-02-25 22:15:17,14.98324403,0.0003044,69.9986,297.2581,268.7439,91.3371,0.00011569,1.287e-05,0.0,0 STARLINK-5599,1 55766U 23028AB  24056.92728436  .00001287  00000-0  11569-3 0  9995,2 55766  69.9986 297.2581 0003044 268.7439  91.3371 14.98324403 55273,6950.21,96.107,574.191,569.96,0.0
55766.0,STARLINK-5599,PAYLOAD,2024-02-26 01:27:33,14.98320305,0.0003001,69.9986,296.9214,269.6229,90.4587,0.0002262,2.606e-05,0.0,0 STARLINK-5599,1 55766U 23028AB  24057.06080456  .00002606  00000-0  22620-3 0  9990,2 55766  69.9986 296.9214 0003001 269.6229  90.4587 14.98320305 55290,6950.223,96.108,574.174,570.002,0.0
55766.0,STARLINK-5599,PAYLOAD,2024-02-26 19:05:02,14.98325706,0.000271,69.999,295.0694,270.1212,89.9636,-8.5088e-05,-1.108e-05,0.0,0 STARLINK-5599,1 55766U 23028AB  24057.79517033 -.00001108  00000-0 -85088-4 0  9992,2 55766  69.9990 295.0694 0002710 270.1212  89.9636 14.98325706 55391,6950.206,96.107,573.955,570.188,0.0
55766.0,STARLINK-5599,PAYLOAD,2024-02-26 22:17:18,14.98322366,0.0002992,69.9989,294.7326,268.4149,91.6667,-4.2237e-05,-5.97e-06,0.0,0 STARLINK-5599,1 55766U 23028AB  24057.92868981 -.00000597  00000-0 -42237-4 0  9998,2 55766  69.9989 294.7326 0002992 268.4149  91.6667 14.98322366 55425,6950.216,96.107,574.161,570.002,0.0
55766.0,STARLINK-5599,PAYLOAD,2024-02-27 09:30:14,14.98334668,0.0003144,69.9988,293.5548,266.8823,93.1976,-0.00011786,-1.499e-05,0.0,0 STARLINK-5599,1 55766U 23028AB  24058.39600475 -.00001499  00000-0 -11786-3 0  9998,2 55766  69.9988 293.5548 0003144 266.8823  93.1976 14.98334668 55482,6950.178,96.107,574.229,569.858,0.0
55766.0,STARLINK-5599,PAYLOAD,2024-02-27 22:19:19,14.98332178,0.0003147,69.998,292.2087,269.6698,90.4101,1.5513e-05,9.2e-07,0.0,0 STARLINK-5599,1 55766U 23028AB  24058.93008354  .00000092  00000-0  15513-4 0  9995,2 55766  69.9980 292.2087 0003147 269.6698  90.4101 14.98332178 55576,6950.186,96.107,574.238,569.864,0.0
55766.0,STARLINK-5599,PAYLOAD,2024-02-28 01:31:35,14.98333703,0.000304,69.9981,291.8718,269.5626,90.5185,3.276e-05,2.98e-06,0.0,0 STARLINK-5599,1 55766U 23028AB  24059.06360196  .00000298  00000-0  32760-4 0  9996,2 55766  69.9981 291.8718 0003040 269.5626  90.5185 14.98333703 55595,6950.181,96.107,574.159,569.934,0.0
55766.0,STARLINK-5599,PAYLOAD,2024-02-28 19:09:04,14.98326179,0.0002831,69.9981,290.02,266.157,93.9265,5.9997e-05,6.23e-06,0.0,0 STARLINK-5599,1 55766U 23028AB  24059.79796617  .00000623  00000-0  59997-4 0  9990,2 55766  69.9981 290.0200 0002831 266.1570  93.9265 14.98326179 55696,6950.205,96.107,574.037,570.102,0.0
55766.0,STARLINK-5599,PAYLOAD,2024-02-28 22:21:20,14.98320371,0.000301,69.9981,289.6834,267.0753,93.0061,0.00017094,1.947e-05,0.0,0 STARLINK-5599,1 55766U 23028AB  24059.93148698  .00001947  00000-0  17094-3 0  9997,2 55766  69.9981 289.6834 0003010 267.0753  93.0061 14.98320371 55723,6950.223,96.108,574.18,569.996,0.0
55766.0,STARLINK-5599,PAYLOAD,2024-02-29 07:58:08,14.98330095,0.0002891,69.9981,288.6733,270.0301,90.0526,1.4973e-05,8.6e-07,0.0,0 STARLINK-5599,1 55766U 23028AB  24060.33204524  .00000086  00000-0  14973-4 0  9991,2 55766  69.9981 288.6733 0002891 270.0301  90.0526 14.98330095 55782,6950.193,96.107,574.067,570.048,0.0
55766.0,STARLINK-5599,PAYLOAD,2024-02-29 19:11:04,14.98332959,0.0002888,69.9981,287.495,269.7199,90.3629,-5.7928e-07,-1e-06,0.0,0 STARLINK-5599,1 55766U 23028AB  24060.79936314 -.00000100  00000-0 -57928-6 0  9998,2 55766  69.9981 287.4950 0002888 269.7199  90.3629 14.98332959 55841,6950.184,96.107,574.056,570.042,0.0
55766.0,STARLINK-5599,PAYLOAD,2024-02-29 22:23:21,14.98332716,0.000289,69.9981,287.158,271.2192,88.8636,-5.4173e-07,-9.9e-07,0.0,0 STARLINK-5599,1 55766U 23028AB  24060.93288311 -.00000099  00000-0 -54173-6 0  9997,2 55766  69.9981 287.1580 0002890 271.2192  88.8636 14.98332716 55875,6950.184,96.107,574.058,570.041,0.0
55766.0,STARLINK-5599,PAYLOAD,2024-03-01 08:00:09,14.98337872,0.0002883,69.9982,286.1476,270.2546,89.8283,-9.635e-05,-1.243e-05,0.0,0 STARLINK-5599,1 55766U 23028AB  24061.33344094 -.00001243  00000-0 -96350-4 0  9996,2 55766  69.9982 286.1476 0002883 270.2546  89.8283 14.98337872 55937,6950.169,96.106,574.037,570.03,0.0
55766.0,STARLINK-5599,PAYLOAD,2024-03-01 19:13:05,14.98330742,0.0002855,69.9981,284.9695,269.0836,90.9996,6.5285e-06,-1.5e-07,0.0,0 STARLINK-5599,1 55766U 23028AB  24061.80076238 -.00000015  00000-0  65285-5 0  9999,2 55766  69.9981 284.9695 0002855 269.0836  90.9996 14.98330742 55991,6950.191,96.107,574.04,570.071,0.0
55766.0,STARLINK-5599,PAYLOAD,2024-03-01 20:49:13,14.98330487,0.0002854,69.998,284.8012,268.9033,91.1799,3.655e-06,-4.9e-07,0.0,0 STARLINK-5599,1 55766U 23028AB  24061.86752257 -.00000049  00000-0  36550-5 0  9997,2 55766  69.9980 284.8012 0002854 268.9033  91.1799 14.98330487 56012,6950.191,96.107,574.04,570.073,0.0
55766.0,STARLINK-5599,PAYLOAD,2024-03-02 00:01:29,14.98331858,0.0002832,69.998,284.4644,269.1478,90.9357,1.962e-05,1.41e-06,0.0,0 STARLINK-5599,1 55766U 23028AB  24062.00104104  .00000141  00000-0  19620-4 0  9996,2 55766  69.9980 284.4644 0002832 269.1478  90.9357 14.98331858 56033,6950.187,96.107,574.02,570.084,0.0
55766.0,STARLINK-5599,PAYLOAD,2024-03-02 19:15:07,14.98327892,0.0002812,69.9979,282.4446,268.4452,91.6385,-4.6319e-05,-6.46e-06,0.0,0 STARLINK-5599,1 55766U 23028AB  24062.80216496 -.00000646  00000-0 -46319-4 0  9999,2 55766  69.9979 282.4446 0002812 268.4452  91.6385 14.98327892 56145,6950.199,96.107,574.019,570.11,0.0
55766.0,STARLINK-5599,PAYLOAD,2024-03-02 22:27:23,14.98326694,0.0002797,69.998,282.1079,267.5144,92.5695,-5.1983e-05,-7.13e-06,0.0,0 STARLINK-5599,1 55766U 23028AB  24062.93568600 -.00000713  00000-0 -51983-4 0  9998,2 55766  69.9980 282.1079 0002797 267.5144  92.5695 14.98326694 56172,6950.203,96.107,574.012,570.124,0.0
55766.0,STARLINK-5599,PAYLOAD,2024-03-03 14:28:43,14.98331515,0.0002881,69.9976,280.4244,269.7012,90.3816,1.9307e-05,1.37e-06,0.0,0 STARLINK-5599,1 55766U 23028AB  24063.60328097  .00000137  00000-0  19307-4 0  9999,2 55766  69.9976 280.4244 0002881 269.7012  90.3816 14.98331515 56274,6950.188,96.107,574.056,570.051,0.0
55766.0,STARLINK-5599,PAYLOAD,2024-03-03 19:17:07,14.98329325,0.0002994,69.9976,279.9196,269.4262,90.6554,7.2779e-06,-6e-08,0.0,0 STARLINK-5599,1 55766U 23028AB  24063.80356242 -.00000006  00000-0  72779-5 0  9993,2 55766  69.9976 279.9196 0002994 269.4262  90.6554 14.98329325 56292,6950.195,96.107,574.141,569.979,0.0
55766.0,STARLINK-5599,PAYLOAD,2024-03-03 20:53:15,14.98332219,0.0002784,69.9975,279.751,263.4814,96.6028,1.6496e-05,1.04e-06,0.0,0 STARLINK-5599,1 55766U 23028AB  24063.87032040  .00000104  00000-0  16496-4 0  9998,2 55766  69.9975 279.7510 0002784 263.4814  96.6028 14.98332219 56314,6950.186,96.107,573.986,570.116,0.0
55766.0,STARLINK-5599,PAYLOAD,2024-03-04 14:30:44,14.98332507,0.0002875,69.9974,277.8986,268.2775,91.8055,8.4785e-05,9.19e-06,0.0,0 STARLINK-5599,1 55766U 23028AB  24064.60467659  .00000919  00000-0  84785-4 0  9998,2 55766  69.9974 277.8986 0002875 268.2775  91.8055 14.98332507 56428,6950.185,96.107,574.048,570.052,0.0
55766.0,STARLINK-5599,PAYLOAD,2024-03-04 20:55:16,14.98333078,0.0002865,69.9975,277.2254,266.7943,93.2888,7.389e-05,7.89e-06,0.0,0 STARLINK-5599,1 55766U 23028AB  24064.87171586  .00000789  00000-0  73890-4 0  9998,2 55766  69.9975 277.2254 0002865 266.7943  93.2888 14.98333078 56457,6950.183,96.107,574.04,570.057,0.0
55766.0,STARLINK-5599,PAYLOAD,2024-03-04 22:31:24,14.98331281,0.0002834,69.9975,277.0572,265.6929,94.3907,8.5659e-05,9.29e-06,0.0,0 STARLINK-5599,1 55766U 23028AB  24064.93847625  .00000929  00000-0  85659-4 0  9991,2 55766  69.9975 277.0572 0002834 265.6929  94.3907 14.98331281 56476,6950.189,96.107,574.024,570.084,0.0
55766.0,STARLINK-5599,PAYLOAD,2024-03-05 14:32:45,14.98332502,0.000259,69.9976,275.3733,270.1719,89.9143,-0.00013391,-1.69e-05,0.0,0 STARLINK-5599,1 55766U 23028AB  24065.60608213 -.00001690  00000-0 -13391-3 0  9995,2 55766  69.9976 275.3733 0002590 270.1719  89.9143 14.98332502 56574,6950.185,96.107,573.85,570.25,0.0
55766.0,STARLINK-5599,PAYLOAD,2024-03-05 19:21:09,14.98318923,0.0002995,69.9976,274.8682,267.3375,92.7441,6.2649e-05,6.54e-06,0.0,0 STARLINK-5599,1 55766U 23028AB  24065.80636491  .00000654  00000-0  62649-4 0  9994,2 55766  69.9976 274.8682 0002995 267.3375  92.7441 14.98318923 56592,6950.227,96.108,574.174,570.011,0.0
55766.0,STARLINK-5599,PAYLOAD,2024-03-06 14:34:46,14.98331219,0.0002956,69.9977,272.849,270.6569,89.4251,-3.1491e-05,-4.69e-06,0.0,0 STARLINK-5599,1 55766U 23028AB  24066.60747982 -.00000469  00000-0 -31491-4 0  9998,2 55766  69.9977 272.8490 0002956 270.6569  89.4251 14.98331219 56727,6950.189,96.107,574.109,570.0,0.0
55766.0,STARLINK-5599,PAYLOAD,2024-03-06 19:23:10,14.98331343,0.0002956,69.9977,272.344,270.7499,89.3321,-2.683e-05,-4.13e-06,0.0,0 STARLINK-5599,1 55766U 23028AB  24066.80775949 -.00000413  00000-0 -26830-4 0  9994,2 55766  69.9977 272.3440 0002956 270.7499  89.3321 14.98331343 56747,6950.189,96.107,574.108,569.999,0.0
55766.0,STARLINK-5599,PAYLOAD,2024-03-07 14:36:47,14.98326287,0.0003008,69.9975,270.3241,267.3277,92.7537,5.6958e-05,5.87e-06,0.0,0 STARLINK-5599,1 55766U 23028AB  24067.60888024  .00000587  00000-0  56958-4 0  9996,2 55766  69.9975 270.3241 0003008 267.3277  92.7537 14.98326287 56879,6950.204,96.107,574.16,569.979,0.0
55766.0,STARLINK-5599,PAYLOAD,2024-03-08 00:13:35,14.98327123,0.000301,69.9975,269.314,267.3622,92.7193,5.8045e-05,6e-06,0.0,0 STARLINK-5599,1 55766U 23028AB  24068.00944036  .00000600  00000-0  58045-4 0  9992,2 55766  69.9975 269.3140 0003010 267.3622  92.7193 14.98327123 56926,6950.202,96.107,574.159,569.975,0.0
